[
    {
        "Altitude(m)": 570344.6372019831,
        "Argument of Periapsis(deg)": 0.033114955553567506,
        "Eccentricity": 0.0,
        "Inclination(deg)": 53.0,
        "Latitude(deg)": -49.33663780908202,
        "Longitude(deg)": -144.72987588181482,
        "Mean Anomaly(deg)": 288.63986433788796,
        "RAAN(deg)": 19.950716842640084,
        "Satellite Name": "Starlink Shell 1 102",
        "Satellite Number": 102,
        "Semi-Major Axis(m)": 6931778.249405717,
        "Time(s)": 950
    },
    {
        "Altitude(m)": 570245.4806595045,
        "Argument of Periapsis(deg)": 0.03346353403307874,
        "Eccentricity": 0.0,
        "Inclination(deg)": 53.0,
        "Latitude(deg)": -49.089208396713694,
        "Longitude(deg)": -143.8950113200658,
        "Mean Anomaly(deg)": 289.2666955414447,
        "RAAN(deg)": 19.950198072562614,
        "Satellite Name": "Starlink Shell 1 102",
        "Satellite Number": 102,
        "Semi-Major Axis(m)": 6931778.249405717,
        "Time(s)": 960
    },
    {
        "Altitude(m)": 570143.4790848064,
        "Argument of Periapsis(deg)": 0.03381211251258998,
        "Eccentricity": 0.0,
        "Inclination(deg)": 53.0,
        "Latitude(deg)": -48.83518351891406,
        "Longitude(deg)": -143.06890762517054,
        "Mean Anomaly(deg)": 289.8935267450014,
        "RAAN(deg)": 19.94967930248514,
        "Satellite Name": "Starlink Shell 1 102",
        "Satellite Number": 102,
        "Semi-Major Axis(m)": 6931778.249405717,
        "Time(s)": 970
    },
    {
        "Altitude(m)": 570038.6729405677,
        "Argument of Periapsis(deg)": 0.034160690992101214,
        "Eccentricity": 0.0,
        "Inclination(deg)": 53.0,
        "Latitude(deg)": -48.57468625227401,
        "Longitude(deg)": -142.25162286871975,
        "Mean Anomaly(deg)": 290.5203579485581,
        "RAAN(deg)": 19.949160532407664,
        "Satellite Name": "Starlink Shell 1 102",
        "Satellite Number": 102,
        "Semi-Major Axis(m)": 6931778.249405717,
        "Time(s)": 980
    },
    {
        "Altitude(m)": 569931.103785494,
        "Argument of Periapsis(deg)": 0.034509269471612446,
        "Eccentricity": 0.0,
        "Inclination(deg)": 53.0,
        "Latitude(deg)": -48.30783973297611,
        "Longitude(deg)": -141.44320174318437,
        "Mean Anomaly(deg)": 291.1471891521148,
        "RAAN(deg)": 19.948641762330194,
        "Satellite Name": "Starlink Shell 1 102",
        "Satellite Number": 102,
        "Semi-Major Axis(m)": 6931778.249405717,
        "Time(s)": 990
    }
]